[{"OBJECT_NAME":"HELIOS 1B","OBJECT_ID":"1999-064A","EPOCH":"2026-03-13T06:41:06.826272","MEAN_MOTION":14.87715338,"ECCENTRICITY":0.00024103,"INCLINATION":98.1688,"RA_OF_ASC_NODE":334.6271,"ARG_OF_PERICENTER":70.5247,"MEAN_ANOMALY":289.6228,"EPHEMERIS_TYPE":0,"CLASSIFICATION_TYPE":"U","NORAD_CAT_ID":25977,"ELEMENT_SET_NO":999,"REV_AT_EPOCH":68579,"BSTAR":0.00024634455,"MEAN_MOTION_DOT":2.187e-5,"MEAN_MOTION_DDOT":0},{"OBJECT_NAME":"TERRA","OBJECT_ID":"1999-068A","EPOCH":"2026-03-13T21:40:50.179584","MEAN_MOTION":14.61019656,"ECCENTRICITY":0.00029511,"INCLINATION":97.9585,"RA_OF_ASC_NODE":126.177,"ARG_OF_PERICENTER":141.9494,"MEAN_ANOMALY":334.0999,"EPHEMERIS_TYPE":0,"CLASSIFICATION_TYPE":"U","NORAD_CAT_ID":25994,"ELEMENT_SET_NO":999,"REV_AT_EPOCH":39569,"BSTAR":0.00010911627,"MEAN_MOTION_DOT":4.91e-6,"MEAN_MOTION_DDOT":0},{"OBJECT_NAME":"SL-16 R/B","OBJECT_ID":"2000-006B","EPOCH":"2026-03-13T07:59:38.410944","MEAN_MOTION":14.15825076,"ECCENTRICITY":0.00165399,"INCLINATION":71.0005,"RA_OF_ASC_NODE":90.176,"ARG_OF_PERICENTER":184.8331,"MEAN_ANOMALY":175.2635,"EPHEMERIS_TYPE":0,"CLASSIFICATION_TYPE":"U","NORAD_CAT_ID":26070,"ELEMENT_SET_NO":999,"REV_AT_EPOCH":34907,"BSTAR":-7.3708334e-5,"MEAN_MOTION_DOT":-1.93e-6,"MEAN_MOTION_DDOT":0},{"OBJECT_NAME":"TITAN 4B R/B","OBJECT_ID":"2000-047B","EPOCH":"2026-03-13T22:29:16.305792","MEAN_MOTION":15.09609287,"ECCENTRICITY":0.00386756,"INCLINATION":67.9902,"RA_OF_ASC_NODE":28.5663,"ARG_OF_PERICENTER":30.4,"MEAN_ANOMALY":329.938,"EPHEMERIS_TYPE":0,"CLASSIFICATION_TYPE":"U","NORAD_CAT_ID":26474,"ELEMENT_SET_NO":999,"REV_AT_EPOCH":39355,"BSTAR":0.00032338215,"MEAN_MOTION_DOT":5.169e-5,"MEAN_MOTION_DDOT":0},{"OBJECT_NAME":"ENVISAT","OBJECT_ID":"2002-009A","EPOCH":"2026-03-13T20:14:40.725888","MEAN_MOTION":14.39038703,"ECCENTRICITY":0.00013132,"INCLINATION":98.3734,"RA_OF_ASC_NODE":26.3421,"ARG_OF_PERICENTER":83.0931,"MEAN_ANOMALY":286.8334,"EPHEMERIS_TYPE":0,"CLASSIFICATION_TYPE":"U","NORAD_CAT_ID":27386,"ELEMENT_SET_NO":999,"REV_AT_EPOCH":25977,"BSTAR":6.4752418e-5,"MEAN_MOTION_DOT":1.57e-6,"MEAN_MOTION_DDOT":0},{"OBJECT_NAME":"IDEFIX & ARIANE 42P R/B","OBJECT_ID":"2002-021B","EPOCH":"2026-03-13T18:15:48.402432","MEAN_MOTION":14.31029449,"ECCENTRICITY":0.00118104,"INCLINATION":98.5871,"RA_OF_ASC_NODE":11.3186,"ARG_OF_PERICENTER":170.0708,"MEAN_ANOMALY":190.0711,"EPHEMERIS_TYPE":0,"CLASSIFICATION_TYPE":"U","NORAD_CAT_ID":27422,"ELEMENT_SET_NO":999,"REV_AT_EPOCH":24460,"BSTAR":0.00014401097,"MEAN_MOTION_DOT":3.36e-6,"MEAN_MOTION_DDOT":0},{"OBJECT_NAME":"AQUA","OBJECT_ID":"2002-022A","EPOCH":"2026-03-13T22:16:56.878176","MEAN_MOTION":14.61988253,"ECCENTRICITY":5.914e-5,"INCLINATION":98.418,"RA_OF_ASC_NODE":40.3707,"ARG_OF_PERICENTER":96.8971,"MEAN_ANOMALY":327.1426,"EPHEMERIS_TYPE":0,"CLASSIFICATION_TYPE":"U","NORAD_CAT_ID":27424,"ELEMENT_SET_NO":999,"REV_AT_EPOCH":26935,"BSTAR":0.00024259677,"MEAN_MOTION_DOT":1.167e-5,"MEAN_MOTION_DDOT":0},{"OBJECT_NAME":"CZ-4B R/B","OBJECT_ID":"2002-024C","EPOCH":"2026-03-13T21:56:25.311840","MEAN_MOTION":14.14548492,"ECCENTRICITY":0.00502782,"INCLINATION":98.883,"RA_OF_ASC_NODE":126.2993,"ARG_OF_PERICENTER":12.2752,"MEAN_ANOMALY":160.444,"EPHEMERIS_TYPE":0,"CLASSIFICATION_TYPE":"U","NORAD_CAT_ID":27432,"ELEMENT_SET_NO":999,"REV_AT_EPOCH":22983,"BSTAR":4.8626056e-5,"MEAN_MOTION_DOT":5.0e-7,"MEAN_MOTION_DDOT":0},{"OBJECT_NAME":"MIDORI II (ADEOS-II)","OBJECT_ID":"2002-056A","EPOCH":"2026-03-13T07:17:40.396128","MEAN_MOTION":14.2928839,"ECCENTRICITY":0.00014565,"INCLINATION":98.7772,"RA_OF_ASC_NODE":30.8065,"ARG_OF_PERICENTER":38.7795,"MEAN_ANOMALY":321.3491,"EPHEMERIS_TYPE":0,"CLASSIFICATION_TYPE":"U","NORAD_CAT_ID":27597,"ELEMENT_SET_NO":999,"REV_AT_EPOCH":21081,"BSTAR":0.00016588023,"MEAN_MOTION_DOT":3.77e-6,"MEAN_MOTION_DDOT":0},{"OBJECT_NAME":"H-2A R/B","OBJECT_ID":"2002-056E","EPOCH":"2026-03-13T19:34:59.528064","MEAN_MOTION":14.33763913,"ECCENTRICITY":0.00707477,"INCLINATION":98.3207,"RA_OF_ASC_NODE":33.0246,"ARG_OF_PERICENTER":148.4529,"MEAN_ANOMALY":227.3363,"EPHEMERIS_TYPE":0,"CLASSIFICATION_TYPE":"U","NORAD_CAT_ID":27601,"ELEMENT_SET_NO":999,"REV_AT_EPOCH":21470,"BSTAR":0.00012902088,"MEAN_MOTION_DOT":3.27e-6,"MEAN_MOTION_DDOT":0},{"OBJECT_NAME":"CZ-4B R/B","OBJECT_ID":"2003-049C","EPOCH":"2026-03-13T22:07:57.570240","MEAN_MOTION":14.550247,"ECCENTRICITY":0.00474222,"INCLINATION":98.688,"RA_OF_ASC_NODE":67.993,"ARG_OF_PERICENTER":217.7404,"MEAN_ANOMALY":142.0463,"EPHEMERIS_TYPE":0,"CLASSIFICATION_TYPE":"U","NORAD_CAT_ID":28059,"ELEMENT_SET_NO":999,"REV_AT_EPOCH":18721,"BSTAR":0.00011299877,"MEAN_MOTION_DOT":4.42e-6,"MEAN_MOTION_DDOT":0},{"OBJECT_NAME":"CZ-2C R/B","OBJECT_ID":"2004-012C","EPOCH":"2026-03-13T03:02:05.447616","MEAN_MOTION":15.64944388,"ECCENTRICITY":0.00129338,"INCLINATION":97.7223,"RA_OF_ASC_NODE":137.7453,"ARG_OF_PERICENTER":295.2646,"MEAN_ANOMALY":64.7272,"EPHEMERIS_TYPE":0,"CLASSIFICATION_TYPE":"U","NORAD_CAT_ID":28222,"ELEMENT_SET_NO":999,"REV_AT_EPOCH":20481,"BSTAR":0.00060765345,"MEAN_MOTION_DOT":0.00059904,"MEAN_MOTION_DDOT":0},{"OBJECT_NAME":"SL-16 R/B","OBJECT_ID":"2004-021B","EPOCH":"2026-03-13T10:00:21.351456","MEAN_MOTION":14.14596418,"ECCENTRICITY":0.0004293,"INCLINATION":70.9996,"RA_OF_ASC_NODE":224.6701,"ARG_OF_PERICENTER":3.8877,"MEAN_ANOMALY":356.2278,"EPHEMERIS_TYPE":0,"CLASSIFICATION_TYPE":"U","NORAD_CAT_ID":28353,"ELEMENT_SET_NO":999,"REV_AT_EPOCH":12336,"BSTAR":-0.00012158589,"MEAN_MOTION_DOT":-2.81e-6,"MEAN_MOTION_DDOT":0},{"OBJECT_NAME":"CZ-4B R/B","OBJECT_ID":"2004-035C","EPOCH":"2026-03-13T20:03:16.453440","MEAN_MOTION":15.29142114,"ECCENTRICITY":0.00305858,"INCLINATION":97.3501,"RA_OF_ASC_NODE":107.0287,"ARG_OF_PERICENTER":316.1574,"MEAN_ANOMALY":43.7238,"EPHEMERIS_TYPE":0,"CLASSIFICATION_TYPE":"U","NORAD_CAT_ID":28415,"ELEMENT_SET_NO":999,"REV_AT_EPOCH":18054,"BSTAR":0.00033329055,"MEAN_MOTION_DOT":9.485e-5,"MEAN_MOTION_DDOT":0},{"OBJECT_NAME":"CZ-2C R/B","OBJECT_ID":"2004-046B","EPOCH":"2026-03-13T18:18:27.466560","MEAN_MOTION":14.26993658,"ECCENTRICITY":0.01401006,"INCLINATION":98.1981,"RA_OF_ASC_NODE":347.4933,"ARG_OF_PERICENTER":142.4411,"MEAN_ANOMALY":218.6658,"EPHEMERIS_TYPE":0,"CLASSIFICATION_TYPE":"U","NORAD_CAT_ID":28480,"ELEMENT_SET_NO":999,"REV_AT_EPOCH":10908,"BSTAR":6.9491911e-5,"MEAN_MOTION_DOT":1.47e-6,"MEAN_MOTION_DDOT":0},{"OBJECT_NAME":"ARIANE 5 R/B","OBJECT_ID":"2004-049H","EPOCH":"2026-03-13T22:39:40.113792","MEAN_MOTION":14.85274516,"ECCENTRICITY":0.0083636,"INCLINATION":98.2633,"RA_OF_ASC_NODE":241.5606,"ARG_OF_PERICENTER":338.0937,"MEAN_ANOMALY":21.6708,"EPHEMERIS_TYPE":0,"CLASSIFICATION_TYPE":"U","NORAD_CAT_ID":28499,"ELEMENT_SET_NO":999,"REV_AT_EPOCH":14642,"BSTAR":0.00010094387,"MEAN_MOTION_DOT":8.57e-6,"MEAN_MOTION_DDOT":0},{"OBJECT_NAME":"CZ-2D R/B","OBJECT_ID":"2005-024B","EPOCH":"2026-03-13T22:36:28.168416","MEAN_MOTION":15.60554268,"ECCENTRICITY":0.0005157,"INCLINATION":97.3594,"RA_OF_ASC_NODE":88.2454,"ARG_OF_PERICENTER":35.8223,"MEAN_ANOMALY":324.3379,"EPHEMERIS_TYPE":0,"CLASSIFICATION_TYPE":"U","NORAD_CAT_ID":28738,"ELEMENT_SET_NO":999,"REV_AT_EPOCH":14044,"BSTAR":0.00058699674,"MEAN_MOTION_DOT":0.00048547,"MEAN_MOTION_DDOT":0}]
